ONEWEB-0158             
1 48054U 21025N   24249.63919760  .00000119  00000+0  29198-3 0  9995
2 48054  87.8856  89.4680 0001578  80.0596 280.0711 13.13467798168361
ONEWEB-0157             
1 48055U 21025P   24249.12977080 -.00000311  00000+0 -88722-3 0  9993
2 48055  87.8855  89.5837 0001852  82.6863 277.4476 13.13470512168238
ONEWEB-0155             
1 48057U 21025R   24250.10420399  .00000894  00000+0  24123-2 0  9999
2 48057  87.8856  89.3945 0001781  92.0985 268.0348 13.13468685168489
ONEWEB-0149             
1 48058U 21025S   24250.12483551 -.00000321  00000+0 -91442-3 0  9997
2 48058  87.8854  89.3869 0001747  76.8351 283.2973 13.13466412168290
ONEWEB-0148             
1 48059U 21025T   24249.63286784  .00000309  00000+0  81131-3 0  9999
2 48059  87.8859  89.4986 0002146  71.3461 288.7901 13.13470521168346
ONEWEB-0160             
1 48060U 21025U   24249.11548311 -.00000129  00000+0 -38901-3 0  9990
2 48060  87.8860  89.5978 0000736  74.1840 285.9370 13.13469488168223
ONEWEB-0163             
1 48061U 21025V   24249.63445478  .00000316  00000+0  82957-3 0  9994
2 48061  87.8855  89.4846 0001957  86.1521 273.9831 13.13469479168416
